ONEWEB-0697             
1 61603U 24188K   25251.53700293 -.00000349  00000+0 -10218-2 0  9994
2 61603  87.8769  77.1947 0001161 116.0932 244.0316 13.11415658 47533
ONEWEB-0698             
1 61604U 24188L   25251.51497309  .00000421  00000+0  11527-2 0  9997
2 61604  87.8769  77.2135 0000604  78.4250 281.6946 13.11415991 47557
ONEWEB-0699             
1 61605U 24188M   25251.60906087  .00000157  00000+0  41289-3 0  9991
2 61605  87.8755  92.4087 0001152  97.6156 262.5102 13.10375603 46437
ONEWEB-0700             
1 61606U 24188N   25251.61072089  .00000330  00000+0  90915-3 0  9992
2 61606  87.8738  92.2941 0001707 108.3092 251.8222 13.10375954 46423
ONEWEB-0701             
1 61607U 24188P   25251.62732112  .00000709  00000+0  19943-2 0  9995
2 61607  87.8741  92.4104 0001056 110.8620 249.2620 13.10372386 46433
ONEWEB-0702             
1 61608U 24188Q   25251.48443655 -.00000077  00000+0 -25334-3 0  9993
2 61608  87.8708  77.1506 0001432 123.1301 236.9964 13.11422035 47561
ONEWEB-0704             
1 61609U 24188R   25251.61570420  .00000524  00000+0  14657-2 0  9990
2 61609  87.8768  92.3623 0001483 121.1518 238.9755 13.10375078 46417
ONEWEB-0705             
1 61610U 24188S   25251.62068858  .00000769  00000+0  21662-2 0  9995
2 61610  87.8746  92.3954 0002467 111.1485 248.9906 13.10375126 38589
